GOMX-1                  
1 39430U 13066Q   26180.51063360  .00001663  00000+0  25409-3 0  9994
2 39430  97.6476  20.1957 0129591  38.4087 322.6258 14.69500920671728
CUBEBUG-2 (LO-74)       
1 39440U 13066AA  26180.32123062  .00004338  00000+0  40121-3 0  9990
2 39440  97.8907 129.3513 0057100 348.8931  11.1023 14.93858905678804
NEE-02 KRYSAOR          
1 39441U 13066AB  26180.32437912  .00002628  00000+0  29043-3 0  9993
2 39441  97.8896 119.4528 0066883  31.1697 329.3459 14.86673392678003
FUNCUBE-1 (AO-73)       
1 39444U 13066AE  26179.92186698  .00006331  00000+0  39163-3 0  9991
2 39444  97.8277 151.6136 0036884 160.9318 199.3301 15.09627566681431
UWE-3                   
1 39446U 13066AG  26179.84552922  .00002989  00000+0  25871-3 0  9997
2 39446  97.8711 135.9993 0046889 281.4584  78.1373 14.97114508679323
SMDC ONE 2.4            
1 39469U 13072H   26180.45018596  .00010107  00000+0  38110-3 0  9993
2 39469 120.4927  39.4380 0146874  31.9926 328.9968 15.18425996119696
COSMOS 2488 (RODNIK-S 7)
1 39483U 13076A   26180.51467362  .00000053  00000+0  31351-3 0  9998
2 39483  82.4829 161.0144 0020874  69.9619 290.3705 12.42906220567428
COSMOS 2489 (RODNIK-S 8)
1 39484U 13076B   26180.49013517 -.00000080  00000+0 -65121-3 0  9999
2 39484  82.4864 162.4124 0022695  69.8883 290.4636 12.42879490567473
COSMOS 2490 (RODNIK-S 9)
1 39485U 13076C   26180.54254027 -.00000048  00000+0 -42130-3 0  9998
2 39485  82.4812 160.4418 0022880  84.5103 275.8586 12.42878526567410
KAZEOSAT 1              
1 39731U 14024A   26180.51090656  .00000473  00000+0  15685-3 0  9994
2 39731  98.3210 252.6520 0001218  75.9918 284.1407 14.42085697640339
COSMOS 2496 (RODNIK-S *)
1 39761U 14028A   26180.50004345 -.00000036  00000+0 -33389-3 0  9998
2 39761  82.4460 101.0202 0021299  53.4832 306.8205 12.42878652549047
COSMOS 2497 (RODNIK-S *)
1 39762U 14028B   26180.55566406 -.00000059  00000+0 -49680-3 0  9991
2 39762  82.4509 102.6799 0021799  48.5815 311.7133 12.42894336549054
COSMOS 2498 (RODNIK-S *)
1 39763U 14028C   26180.53241043 -.00000045  00000+0 -39703-3 0  9997
2 39763  82.4468 101.1762 0022515  48.2461 312.0539 12.42980200549087
HODOYOSHI-4             
1 40011U 14033B   26180.54062623  .00001656  00000+0  18471-3 0  9993
2 40011  97.5450   4.7668 0021939 264.7250  95.1464 14.88156696650643
UNISAT-6                
1 40012U 14033C   26180.36972073  .00002723  00000+0  29498-3 0  9990
2 40012  97.7887 332.8678 0045501  30.0269 330.3542 14.88303536647971
DEIMOS-2                
1 40013U 14033D   26180.57586341  .00000780  00000+0  78747-4 0  9996
2 40013  97.5817  54.6290 0000882  55.2324 304.8980 14.93754913639570
BUGSAT-1 (TITA)         
1 40014U 14033E   26180.51399997  .00005399  00000+0  28434-3 0  9998
2 40014  98.0441 273.7844 0028885 136.9345 223.4154 15.15722162657702
SAUDISAT 4              
1 40016U 14033G   26180.35973310  .00000618  00000+0  87969-4 0  9997
2 40016  97.7596 326.0741 0045557  35.3780 325.0439 14.79559608647873
APRIZESAT 9             
1 40018U 14033J   26180.35705405  .00000800  00000+0  12448-3 0  9999
2 40018  97.9075 313.2590 0066642 160.0648 200.3187 14.74232029645352
BRITE-CA1 (TORONTO)     
1 40020U 14033L   26180.33571178  .00000940  00000+0  14871-3 0  9995
2 40020  97.9753 309.0406 0077443 237.4573 121.9137 14.72695672644003
DUCHIFAT-1              
1 40021U 14033M   26179.97276446  .00117244  00000+0  10875-2 0  9999
2 40021  98.0456 240.8096 0000645 103.8669 256.2662 15.67092926657596
NANOSATC-BR1            
1 40024U 14033Q   26179.63845997  .00016168  00000+0  52837-3 0  9996
2 40024  98.0715 213.0430 0005155 135.6679 224.4974 15.31817768655733
